[Satellite]
VERSION=1.1
NAME=SINAH 1
NICKNAME=SINAH 1
TLE1=1 28893U 05043D   15054.55363918  .00000382  00000-0  86692-4 0  9995
TLE2=2 28893  97.8205 245.9483 0014139 299.4732 126.0322 14.61012341497102
